[{"OBJECT_NAME":"STARLINK-35554","OBJECT_ID":"2025-245F","EPOCH":"2026-03-09T21:01:51.157056","MEAN_MOTION":15.30232118,"ECCENTRICITY":6.671e-5,"INCLINATION":53.1566,"RA_OF_ASC_NODE":283.1355,"ARG_OF_PERICENTER":55.4083,"MEAN_ANOMALY":304.6981,"EPHEMERIS_TYPE":0,"CLASSIFICATION_TYPE":"U","NORAD_CAT_ID":66239,"ELEMENT_SET_NO":999,"REV_AT_EPOCH":2112,"BSTAR":0.00088149449,"MEAN_MOTION_DOT":0.00025865,"MEAN_MOTION_DDOT":0},{"OBJECT_NAME":"CZ-4 DEB","OBJECT_ID":"2003-049H","EPOCH":"2026-03-08T08:27:28.944576","MEAN_MOTION":15.27137095,"ECCENTRICITY":0.00307627,"INCLINATION":98.6284,"RA_OF_ASC_NODE":272.5918,"ARG_OF_PERICENTER":169.0311,"MEAN_ANOMALY":191.1601,"EPHEMERIS_TYPE":0,"CLASSIFICATION_TYPE":"U","NORAD_CAT_ID":35381,"ELEMENT_SET_NO":999,"REV_AT_EPOCH":18390,"BSTAR":0.0032047887,"MEAN_MOTION_DOT":0.00087287,"MEAN_MOTION_DDOT":0}]
